NORAD_CAT_ID,OBJECT_NAME,OBJECT_TYPE,EPOCH,MEAN_MOTION,ECCENTRICITY,INCLINATION,RA_OF_ASC_NODE,ARG_OF_PERICENTER,MEAN_ANOMALY,BSTAR,MEAN_MOTION_DOT,MEAN_MOTION_DDOT,TLE_LINE0,TLE_LINE1,TLE_LINE2,SEMIMAJOR_AXIS,PERIOD,APOGEE,PERIGEE,DECAYED
52290.0,STARLINK-3772,PAYLOAD,2023-06-01 05:09:32,15.08846484,9.19e-05,53.2161,324.3655,83.2693,276.8403,0.0001717,2.446e-05,0.0,0 STARLINK-3772,1 52290U 22041AF  23152.21495739  .00002446  00000-0  17170-3 0  9995,2 52290  53.2161 324.3655 0000919  83.2693 276.8403 15.08846484 61652,6917.861,95.437,540.361,539.09,0.0
52290.0,STARLINK-3772,PAYLOAD,2023-06-01 21:03:23,15.08842767,0.0001022,53.2161,321.3912,88.4792,271.6317,9.3139e-05,1.195e-05,0.0,0 STARLINK-3772,1 52290U 22041AF  23152.87735892  .00001195  00000-0  93139-4 0  9994,2 52290  53.2161 321.3912 0001022  88.4792 271.6317 15.08842767 61756,6917.872,95.437,540.444,539.03,0.0
52290.0,STARLINK-3772,PAYLOAD,2023-06-02 14:32:38,15.08841908,0.0001173,53.2175,318.1177,105.6967,254.4155,-2.8048e-05,-7.34e-06,0.0,0 STARLINK-3772,1 52290U 22041AF  23153.60600216 -.00000734  00000-0 -28048-4 0  9994,2 52290  53.2175 318.1177 0001173 105.6967 254.4155 15.08841908 61868,6917.875,95.437,540.551,538.928,0.0
52290.0,STARLINK-3772,PAYLOAD,2023-06-02 17:43:24,15.08841006,9.53e-05,53.2169,317.5247,85.5529,274.5572,-1.274e-06,-3.08e-06,0.0,0 STARLINK-3772,1 52290U 22041AF  23153.73848186 -.00000308  00000-0 -12740-5 0  9998,2 52290  53.2169 317.5247 0000953  85.5529 274.5572 15.08841006 63099,6917.877,95.437,540.402,539.083,0.0
52290.0,STARLINK-3772,PAYLOAD,2023-06-03 14:23:26,15.08833377,9.23e-05,53.2174,313.6591,88.791,271.3188,4.2584e-05,3.9e-06,0.0,0 STARLINK-3772,1 52290U 22041AF  23154.59960813  .00000390  00000-0  42584-4 0  9992,2 52290  53.2174 313.6591 0000923  88.7910 271.3188 15.08833377 62011,6917.901,95.438,540.404,539.127,0.0
52290.0,STARLINK-3772,PAYLOAD,2023-06-03 20:44:58,15.08841335,8.73e-05,53.2168,312.4705,83.9836,276.1255,5.3522e-05,5.64e-06,0.0,0 STARLINK-3772,1 52290U 22041AF  23154.86456372  .00000564  00000-0  53522-4 0  9999,2 52290  53.2168 312.4705 0000873  83.9836 276.1255 15.08841335 62051,6917.876,95.437,540.345,539.137,0.0
52290.0,STARLINK-3772,PAYLOAD,2023-06-04 14:14:13,15.08838333,9.13e-05,53.2169,309.1994,79.4947,280.6148,0.00010885,1.445e-05,0.0,0 STARLINK-3772,1 52290U 22041AF  23155.59320647  .00001445  00000-0  10885-3 0  9998,2 52290  53.2169 309.1994 0000913  79.4947 280.6148 15.08838333 62160,6917.885,95.438,540.382,539.119,0.0
52290.0,STARLINK-3772,PAYLOAD,2023-06-04 20:35:45,15.08846456,9.36e-05,53.2169,308.0101,76.4967,283.613,0.00017584,2.512e-05,0.0,0 STARLINK-3772,1 52290U 22041AF  23155.85816003  .00002512  00000-0  17584-3 0  9992,2 52290  53.2169 308.0101 0000936  76.4967 283.6130 15.08846456 62206,6917.861,95.437,540.373,539.078,0.0
52290.0,STARLINK-3772,PAYLOAD,2023-06-05 02:57:18,15.08835245,8.81e-05,53.217,306.8205,88.0851,272.0242,8.9686e-05,1.14e-05,0.0,0 STARLINK-3772,1 52290U 22041AF  23156.12312895  .00001140  00000-0  89686-4 0  9992,2 52290  53.2170 306.8205 0000881  88.0851 272.0242 15.08835245 63457,6917.895,95.438,540.369,539.15,0.0
52290.0,STARLINK-3772,PAYLOAD,2023-06-05 20:26:32,15.08846074,9.37e-05,53.2165,303.5495,88.3115,271.7985,0.00013778,1.906e-05,0.0,0 STARLINK-3772,1 52290U 22041AF  23156.85176231  .00001906  00000-0  13778-3 0  9992,2 52290  53.2165 303.5495 0000937  88.3115 271.7985 15.08846074 62354,6917.862,95.437,540.375,539.079,0.0
52290.0,STARLINK-3772,PAYLOAD,2023-06-06 12:20:24,15.08836016,0.0001055,53.216,300.5756,84.4791,275.6321,-2.3483e-05,-6.61e-06,0.0,0 STARLINK-3772,1 52290U 22041AF  23157.51416760 -.00000661  00000-0 -23483-4 0  9994,2 52290  53.2160 300.5756 0001055  84.4791 275.6321 15.08836016 62458,6917.893,95.438,540.487,539.028,0.0
52290.0,STARLINK-3772,PAYLOAD,2023-06-06 15:31:10,15.0884158,9.34e-05,53.2167,299.981,88.4174,271.6925,2.2243e-05,6.6e-07,0.0,0 STARLINK-3772,1 52290U 22041AF  23157.64664843  .00000066  00000-0  22243-4 0  9995,2 52290  53.2167 299.9810 0000934  88.4174 271.6925 15.08841580 63685,6917.876,95.437,540.387,539.094,0.0
52290.0,STARLINK-3772,PAYLOAD,2023-06-07 12:11:11,15.08836433,0.0001043,53.2162,296.1158,84.909,275.2022,2.5776e-05,1.22e-06,0.0,0 STARLINK-3772,1 52290U 22041AF  23158.50776964  .00000122  00000-0  25776-4 0  9996,2 52290  53.2162 296.1158 0001043  84.9090 275.2022 15.08836433 62604,6917.891,95.438,540.478,539.035,0.0
52290.0,STARLINK-3772,PAYLOAD,2023-06-07 16:57:20,15.0884426,8.5e-05,53.2162,295.2228,99.3433,260.7655,6.7713e-05,7.9e-06,0.0,0 STARLINK-3772,1 52290U 22041AF  23158.70648492  .00000790  00000-0  67713-4 0  9990,2 52290  53.2162 295.2228 0000850  99.3433 260.7655 15.08844260 63843,6917.867,95.437,540.32,539.144,0.0
52290.0,STARLINK-3772,PAYLOAD,2023-06-08 08:51:12,15.08838242,9.57e-05,53.2169,292.25,87.0072,273.103,0.00011623,1.562e-05,0.0,0 STARLINK-3772,1 52290U 22041AF  23159.36888954  .00001562  00000-0  11623-3 0  9998,2 52290  53.2169 292.2500 0000957  87.0072 273.1030 15.08838242 63940,6917.886,95.438,540.413,539.089,0.0
52290.0,STARLINK-3772,PAYLOAD,2023-06-08 15:12:44,15.08841365,0.0001038,53.2164,291.0599,85.9898,274.1213,0.00013018,1.785e-05,0.0,0 STARLINK-3772,1 52290U 22041AF  23159.63384752  .00001785  00000-0  13018-3 0  9992,2 52290  53.2164 291.0599 0001038  85.9898 274.1213 15.08841365 62778,6917.876,95.437,540.459,539.023,0.0
52290.0,STARLINK-3772,PAYLOAD,2023-06-09 08:41:58,15.08842337,0.0001083,53.2162,287.7905,73.9394,286.1718,9.0441e-05,1.152e-05,0.0,0 STARLINK-3772,1 52290U 22041AF  23160.36248812  .00001152  00000-0  90441-4 0  9994,2 52290  53.2162 287.7905 0001083  73.9394 286.1718 15.08842337 62882,6917.873,95.437,540.487,538.989,0.0
52290.0,STARLINK-3772,PAYLOAD,2023-06-09 13:28:08,15.08849371,9.61e-05,53.2165,286.8979,69.3208,290.7887,-2.9089e-05,-7.51e-06,0.0,0 STARLINK-3772,1 52290U 22041AF  23160.56120485 -.00000751  00000-0 -29089-4 0  9997,2 52290  53.2165 286.8979 0000961  69.3208 290.7887 15.08849371 64125,6917.852,95.437,540.382,539.052,0.0
52290.0,STARLINK-3772,PAYLOAD,2023-06-10 03:46:36,15.08840979,9.95e-05,53.2171,284.2219,80.423,279.6875,8.2203e-05,1.021e-05,0.0,0 STARLINK-3772,1 52290U 22041AF  23161.15736822  .00001021  00000-0  82203-4 0  9997,2 52290  53.2171 284.2219 0000995  80.4230 279.6875 15.08840979 64215,6917.877,95.437,540.431,539.054,0.0
52290.0,STARLINK-3772,PAYLOAD,2023-06-10 10:08:09,15.08836562,9.81e-05,53.217,283.0322,80.042,280.0683,1.3311e-05,-7.6e-07,0.0,0 STARLINK-3772,1 52290U 22041AF  23161.42233261 -.00000076  00000-0  13311-4 0  9990,2 52290  53.2170 283.0322 0000981  80.0420 280.0683 15.08836562 63044,6917.891,95.438,540.435,539.077,0.0
52290.0,STARLINK-3772,PAYLOAD,2023-06-10 18:05:04,15.08844186,9.59e-05,53.2169,281.5438,87.5116,272.5985,6.5176e-05,7.5e-06,0.0,0 STARLINK-3772,1 52290U 22041AF  23161.75352579  .00000750  00000-0  65176-4 0  9994,2 52290  53.2169 281.5438 0000959  87.5116 272.5985 15.08844186 63099,6917.868,95.437,540.396,539.069,0.0
52290.0,STARLINK-3772,PAYLOAD,2023-06-11 08:23:33,15.08836353,9.62e-05,53.2168,278.8693,75.0073,285.1025,2.3961e-05,9.4e-07,0.0,0 STARLINK-3772,1 52290U 22041AF  23162.34969330  .00000094  00000-0  23961-4 0  9996,2 52290  53.2168 278.8693 0000962  75.0073 285.1025 15.08836353 64394,6917.892,95.438,540.422,539.091,0.0
52290.0,STARLINK-3772,PAYLOAD,2023-06-11 14:45:05,15.08841586,7.75e-05,53.217,277.6795,93.6242,266.4839,6.1808e-05,6.96e-06,0.0,0 STARLINK-3772,1 52290U 22041AF  23162.61464816  .00000696  00000-0  61808-4 0  9995,2 52290  53.2170 277.6795 0000775  93.6242 266.4839 15.08841586 63223,6917.876,95.437,540.277,539.204,0.0
52290.0,STARLINK-3772,PAYLOAD,2023-06-11 16:20:28,15.08844147,9.09e-05,53.217,277.3819,94.5991,265.5105,8.172e-05,1.013e-05,0.0,0 STARLINK-3772,1 52290U 22041AF  23162.68088620  .00001013  00000-0  81720-4 0  9996,2 52290  53.2170 277.3819 0000909  94.5991 265.5105 15.08844147 64444,6917.868,95.437,540.362,539.104,0.0
52290.0,STARLINK-3772,PAYLOAD,2023-06-11 17:55:51,15.08845736,9.49e-05,53.2167,277.0842,97.625,262.485,9.6083e-05,1.242e-05,0.0,0 STARLINK-3772,1 52290U 22041AF  23162.74712474  .00001242  00000-0  96083-4 0  9996,2 52290  53.2167 277.0842 0000949  97.6250 262.4850 15.08845736 63244,6917.863,95.437,540.384,539.071,0.0
52290.0,STARLINK-3772,PAYLOAD,2023-06-12 00:17:24,15.08842348,8.85e-05,53.2167,275.8947,91.0269,269.0825,7.5745e-05,9.18e-06,0.0,0 STARLINK-3772,1 52290U 22041AF  23163.01208732  .00000918  00000-0  75745-4 0  9995,2 52290  53.2167 275.8947 0000885  91.0269 269.0825 15.08842348 63288,6917.873,95.437,540.35,539.126,0.0
52290.0,STARLINK-3772,PAYLOAD,2023-06-12 14:35:53,15.08831661,9.51e-05,53.2168,273.2185,96.1255,263.9846,4.3906e-05,4.11e-06,0.0,0 STARLINK-3772,1 52290U 22041AF  23163.60825670  .00000411  00000-0  43906-4 0  9998,2 52290  53.2168 273.2185 0000951  96.1255 263.9846 15.08831661 64586,6917.906,95.438,540.429,539.113,0.0
52290.0,STARLINK-3772,PAYLOAD,2023-06-13 00:08:12,15.08837109,0.0001053,53.2168,271.4343,91.84,268.2712,-1.2984e-05,-4.94e-06,0.0,0 STARLINK-3772,1 52290U 22041AF  23164.00569579 -.00000494  00000-0 -12984-4 0  9991,2 52290  53.2168 271.4343 0001053  91.8400 268.2712 15.08837109 63436,6917.889,95.438,540.483,539.026,0.0
52290.0,STARLINK-3772,PAYLOAD,2023-06-14 09:31:17,15.08851881,0.0001193,53.2166,265.19,82.9751,277.1377,-0.00011713,-2.152e-05,0.0,0 STARLINK-3772,1 52290U 22041AF  23165.39673158 -.00002152  00000-0 -11713-3 0  9994,2 52290  53.2166 265.1900 0001193  82.9751 277.1377 15.08851881 64854,6917.844,95.437,540.534,538.884,0.0
52290.0,STARLINK-3772,PAYLOAD,2023-06-14 23:49:46,15.088383,0.0001006,53.2168,262.5134,83.7452,276.3655,7.4464e-05,8.97e-06,0.0,0 STARLINK-3772,1 52290U 22041AF  23165.99289662  .00000897  00000-0  74464-4 0  9998,2 52290  53.2168 262.5134 0001006  83.7452 276.3655 15.08838300 64947,6917.886,95.438,540.447,539.055,0.0
